NORAD_CAT_ID,OBJECT_NAME,OBJECT_TYPE,EPOCH,MEAN_MOTION,ECCENTRICITY,INCLINATION,RA_OF_ASC_NODE,ARG_OF_PERICENTER,MEAN_ANOMALY,BSTAR,MEAN_MOTION_DOT,MEAN_MOTION_DDOT,TLE_LINE0,TLE_LINE1,TLE_LINE2,SEMIMAJOR_AXIS,PERIOD,APOGEE,PERIGEE,DECAYED
53395.0,STARLINK-4534,PAYLOAD,2023-01-07 11:41:43,15.08840522,0.0002636,53.2126,279.0125,88.7429,271.3865,0.00065749,0.00010192,0.0,0 STARLINK-4534,1 53395U 22097H   23007.48730342  .00010192  00000-0  65749-3 0  9995,2 53395  53.2126 279.0125 0002636  88.7429 271.3865 15.08840522 23324,6917.879,95.438,541.567,537.92,0.0
53395.0,STARLINK-4534,PAYLOAD,2023-01-07 21:14:01,15.08839741,0.0001725,53.213,277.2292,86.20100000000002,273.9179,0.00078499,0.00012227,0.0,0 STARLINK-4534,1 53395U 22097H   23007.88474121  .00012227  00000-0  78499-3 0  9996,2 53395  53.2130 277.2292 0001725  86.2010 273.9179 15.08839741 23878,6917.880999999999,95.438,540.94,538.553,0.0
53395.0,STARLINK-4534,PAYLOAD,2023-01-08 00:24:47,15.08847015,0.0001754,53.213,276.6348,81.6074,278.5116,0.00055535,8.563e-05,0.0,0 STARLINK-4534,1 53395U 22097H   23008.01722025  .00008563  00000-0  55535-3 0  9995,2 53395  53.2130 276.6348 0001754  81.6074 278.5116 15.08847015 23891,6917.859,95.437,540.937,538.511,0.0
53395.0,STARLINK-4534,PAYLOAD,2023-01-08 21:04:48,15.08852148,0.0001694,53.2131,272.769,79.6342,280.4841,0.00077502,0.00012072,0.0,0 STARLINK-4534,1 53395U 22097H   23008.87834042  .00012072  00000-0  77502-3 0  9990,2 53395  53.2131 272.7690 0001694  79.6342 280.4841 15.08852148 24023,6917.843000000002,95.437,540.88,538.536,0.0
53395.0,STARLINK-4534,PAYLOAD,2023-01-09 01:50:57,15.08855627,0.0001710999999999,53.2131,271.877,83.0212,277.0974,0.00070492,0.00010953,0.0,0 STARLINK-4534,1 53395U 22097H   23009.07705818  .00010953  00000-0  70492-3 0  9998,2 53395  53.2131 271.8770 0001711  83.0212 277.0974 15.08855627 23569,6917.833000000001,95.437,540.881,538.514,0.0
53395.0,STARLINK-4534,PAYLOAD,2023-01-09 09:47:53,15.08849314,0.0001443,53.215,270.3888,73.4701,286.645,0.00032719,4.924e-05,0.0,0 STARLINK-4534,1 53395U 22097H   23009.40825740  .00004924  00000-0  32719-3 0  9993,2 53395  53.2150 270.3888 0001443  73.4701 286.6450 15.08849314 24104,6917.852,95.437,540.715,538.719,0.0
53395.0,STARLINK-4534,PAYLOAD,2023-01-10 03:17:08,15.08838654,0.0001732,53.2131,267.1179,82.7157,277.4032,5.4471e-05,5.79e-06,0.0,0 STARLINK-4534,1 53395U 22097H   23010.13690076  .00000579  00000-0  54471-4 0  9999,2 53395  53.2131 267.1179 0001732  82.7157 277.4032 15.08838654 23725,6917.885,95.438,540.948,538.5509999999998,0.0
53395.0,STARLINK-4534,PAYLOAD,2023-01-10 09:38:40,15.08838137,0.0001748,53.213,265.9283,80.1122,280.0068,3.2094e-05,2.23e-06,0.0,0 STARLINK-4534,1 53395U 22097H   23010.40186157  .00000223  00000-0  32094-4 0  9992,2 53395  53.2130 265.9283 0001748  80.1122 280.0068 15.08838137 24251,6917.886,95.438,540.96,538.5419999999998,0.0
53395.0,STARLINK-4534,PAYLOAD,2023-01-11 11:04:50,15.0884481,0.0001788,53.2113,261.1702,83.3947,276.7249,0.00015899,2.243e-05,0.0,0 STARLINK-4534,1 53395U 22097H   23011.46169661  .00002243  00000-0  15899-3 0  9997,2 53395  53.2113 261.1702 0001788  83.3947 276.7249 15.08844810 23921,6917.866,95.437,540.9680000000002,538.494,0.0
53395.0,STARLINK-4534,PAYLOAD,2023-01-11 15:50:59,15.08846492,0.0001669,53.2106,260.2783,78.7066,281.4113,0.00020929,3.045e-05,0.0,0 STARLINK-4534,1 53395U 22097H   23011.66041533  .00003045  00000-0  20929-3 0  9997,2 53395  53.2106 260.2783 0001669  78.7066 281.4113 15.08846492 24449,6917.861,95.437,540.88,538.571,0.0
53395.0,STARLINK-4534,PAYLOAD,2023-01-11 23:47:55,15.08840579,0.0001467,53.2122,258.7924,83.4915,276.6244,-0.0001001,-1.881e-05,0.0,0 STARLINK-4534,1 53395U 22097H   23011.99161851 -.00001881  00000-0 -10010-3 0  9997,2 53395  53.2122 258.7924 0001467  83.4915 276.6244 15.08840579 24001,6917.879,95.438,540.758,538.729,0.0
53395.0,STARLINK-4534,PAYLOAD,2023-01-12 18:52:35,15.08789435,0.0001027,53.213,255.2237,106.6127,253.4978,0.00066819,0.00010348,0.0,0 STARLINK-4534,1 53395U 22097H   23012.78652102  .00010348  00000-0  66819-3 0  9993,2 53395  53.2130 255.2237 0001027 106.6127 253.4978 15.08789435 24127,6918.035,95.441,540.61,539.189,0.0
53395.0,STARLINK-4534,PAYLOAD,2023-01-12 22:03:20,15.0884424,0.0001494,53.2129,254.6287,80.9954,279.1207,-5.3826e-05,-1.145e-05,0.0,0 STARLINK-4534,1 53395U 22097H   23012.91898567 -.00001145  00000-0 -53826-4 0  9997,2 53395  53.2129 254.6287 0001494  80.9954 279.1207 15.08844240 24635,6917.866999999998,95.437,540.766,538.6990000000002,0.0
53395.0,STARLINK-4534,PAYLOAD,2023-01-12 23:38:42,15.08844645,0.0001277,53.2138,254.3321,78.6944,281.4192,0.00017463,2.493e-05,0.0,0 STARLINK-4534,1 53395U 22097H   23012.98521511  .00002493  00000-0  17463-3 0  9997,2 53395  53.2138 254.3321 0001277  78.6944 281.4192 15.08844645 24158,6917.866,95.437,540.615,538.8480000000002,0.0
53395.0,STARLINK-4534,PAYLOAD,2023-01-13 09:11:02,15.08835449,0.0001333,53.2136,252.5477,77.7566,282.3576,8.578600000000001e-05,1.077e-05,0.0,0 STARLINK-4534,1 53395U 22097H   23013.38266448  .00001077  00000-0  85786-4 0  9998,2 53395  53.2136 252.5477 0001333  77.7566 282.3576 15.08835449 24216,6917.894,95.438,540.681,538.837,0.0
53395.0,STARLINK-4534,PAYLOAD,2023-01-13 18:43:21,15.08835104,0.0001322,53.2134,250.7632,79.0951,281.019,7.5033e-05,9.06e-06,0.0,0 STARLINK-4534,1 53395U 22097H   23013.78010663  .00000906  00000-0  75033-4 0  9992,2 53395  53.2134 250.7632 0001322  79.0951 281.0190 15.08835104 24764,6917.895,95.438,540.675,538.846,0.0
53395.0,STARLINK-4534,PAYLOAD,2023-01-13 21:54:06,15.08843449,0.0001020999999999,53.213,250.1676,129.9173,230.1909,0.00013061,1.792e-05,0.0,0 STARLINK-4534,1 53395U 22097H   23013.91257636  .00001792  00000-0  13061-3 0  9996,2 53395  53.2130 250.1676 0001021 129.9173 230.1909 15.08843449 24291,6917.87,95.437,540.441,539.029,0.0
53395.0,STARLINK-4534,PAYLOAD,2023-01-14 21:44:54,15.08840413,0.0001311,53.213,245.7078,82.1955,277.9186,0.00012293,1.669e-05,0.0,0 STARLINK-4534,1 53395U 22097H   23014.90618213  .00001669  00000-0  12293-3 0  9997,2 53395  53.2130 245.7078 0001311  82.1955 277.9186 15.08840413 24448,6917.879,95.438,540.651,538.837,0.0
53395.0,STARLINK-4534,PAYLOAD,2023-01-15 20:00:18,15.0882488,9.24e-05,53.2131,241.5431,86.4338,273.676,0.00028509,4.251e-05,0.0,0 STARLINK-4534,1 53395U 22097H   23015.83354937  .00004251  00000-0  28509-3 0  9997,2 53395  53.2131 241.5431 0000924  86.4338 273.6760 15.08824880 24583,6917.927,95.439,540.431,539.1519999999999,0.0
53395.0,STARLINK-4534,PAYLOAD,2023-01-15 21:35:40,15.08848099,9.79e-05,53.2133,241.2449,92.1415,267.9689,7.8558e-05,9.63e-06,0.0,0 STARLINK-4534,1 53395U 22097H   23015.89977922  .00000963  00000-0  78558-4 0  9994,2 53395  53.2133 241.2449 0000979  92.1415 267.9689 15.08848099 25081,6917.856,95.437,540.398,539.043,0.0
53395.0,STARLINK-4534,PAYLOAD,2023-01-16 21:26:29,15.08833608,9.98e-05,53.2126,236.7855,80.517,279.5935,2.07e-05,4.2e-07,0.0,0 STARLINK-4534,1 53395U 22097H   23016.89339146  .00000042  00000-0  20700-4 0  9999,2 53395  53.2126 236.7855 0000998  80.5170 279.5935 15.08833608 24748,6917.9,95.438,540.455,539.075,0.0
53395.0,STARLINK-4534,PAYLOAD,2023-01-17 13:20:20,15.08835843,9.57e-05,53.2125,233.8116,84.2226,275.8875,-7.4337e-06,-4.06e-06,0.0,0 STARLINK-4534,1 53395U 22097H   23017.55579412 -.00000406  00000-0 -74337-5 0  9997,2 53395  53.2125 233.8116 0000957  84.2226 275.8875 15.08835843 25334,6917.893,95.438,540.42,539.096,0.0
53395.0,STARLINK-4534,PAYLOAD,2023-01-17 16:31:06,15.08841158,9.87e-05,53.2124,233.2172,81.4922,278.6182,2.8317e-05,1.63e-06,0.0,0 STARLINK-4534,1 53395U 22097H   23017.68826996  .00000163  00000-0  28317-4 0  9997,2 53395  53.2124 233.2172 0000987  81.4922 278.6182 15.08841158 25354,6917.877,95.437,540.425,539.059,0.0
53395.0,STARLINK-4534,PAYLOAD,2023-01-18 06:49:35,15.0882813,0.0001,53.2121,230.541,86.5993,273.5113,0.00025623,3.791e-05,0.0,0 STARLINK-4534,1 53395U 22097H   23018.28443451  .00003791  00000-0  25623-3 0  9991,2 53395  53.2121 230.5410 0001000  86.5993 273.5113 15.08828130 24955,6917.917,95.438,540.4730000000001,539.09,0.0
53395.0,STARLINK-4534,PAYLOAD,2023-01-18 21:08:03,15.08840976,0.0001117,53.212,227.8639,81.9096,278.2022,0.00013073,1.793e-05,0.0,0 STARLINK-4534,1 53395U 22097H   23018.88059032  .00001793  00000-0  13073-3 0  9991,2 53395  53.2120 227.8639 0001117  81.9096 278.2022 15.08840976 25042,6917.877,95.437,540.515,538.97,0.0
53395.0,STARLINK-4534,PAYLOAD,2023-01-19 06:40:22,15.08838417,0.0001059,53.2126,226.0789,79.7431,280.368,9.83e-05,1.277e-05,0.0,0 STARLINK-4534,1 53395U 22097H   23019.27803300  .00001277  00000-0  98300-4 0  9994,2 53395  53.2126 226.0789 0001059  79.7431 280.3680 15.08838417 25599,6917.885,95.438,540.4830000000001,539.018,0.0
53395.0,STARLINK-4534,PAYLOAD,2023-01-19 16:12:41,15.088307,7.94e-05,53.2125,224.295,86.5871,273.5212,0.00012021,1.626e-05,0.0,0 STARLINK-4534,1 53395U 22097H   23019.67547772  .00001626  00000-0  12021-3 0  9999,2 53395  53.2125 224.2950 0000794  86.5871 273.5212 15.08830700 25162,6917.909000000001,95.438,540.323,539.225,0.0
53395.0,STARLINK-4534,PAYLOAD,2023-01-20 06:31:09,15.08841501,0.0001118,53.2127,221.6183,86.0093,274.1027,8.4435e-05,1.056e-05,0.0,0 STARLINK-4534,1 53395U 22097H   23020.27163198  .00001056  00000-0  84435-4 0  9999,2 53395  53.2127 221.6183 0001118  86.0093 274.1027 15.08841501 25257,6917.876,95.437,540.514,538.967,0.0
53395.0,STARLINK-4534,PAYLOAD,2023-01-20 22:25:01,15.087962,0.0001284999999999,53.2134,218.6441,95.2245,264.8893,0.00084131,0.00013111,0.0,0 STARLINK-4534,1 53395U 22097H   23020.93404019  .00013111  00000-0  84131-3 0  9999,2 53395  53.2134 218.6441 0001285  95.2245 264.8893 15.08796200 25357,6918.014,95.44,540.768,538.99,0.0
